OBJECT_NAME,OBJECT_ID,EPOCH,MEAN_MOTION,ECCENTRICITY,INCLINATION,RA_OF_ASC_NODE,ARG_OF_PERICENTER,MEAN_ANOMALY,EPHEMERIS_TYPE,CLASSIFICATION_TYPE,NORAD_CAT_ID,ELEMENT_SET_NO,REV_AT_EPOCH,BSTAR,MEAN_MOTION_DOT,MEAN_MOTION_DDOT
HAIYANG-2D,2021-043A,2026-06-06T07:17:17.973600,13.83375399,.00113717,65.9996,331.7963,270.3671,89.6094,0,U,48621,999,25504,.70454666E-4,-.4E-7,0
2021-050D,2021-050D,2026-06-06T07:11:34.646784,15.23220235,.00042875,97.3329,233.5842,315.5776,44.5116,0,U,48843,999,27730,.27474385E-3,.6435E-4,0
TYVAK-0173,2021-059P,2026-06-05T10:45:38.068992,14.81850973,.0010936,96.0083,235.7231,73.9036,286.3385,0,U,48892,999,26650,.25509622E-3,.1986E-4,0
MANDRAKE 2 ABLE,2021-059AE,2026-06-06T04:02:27.162816,15.54534521,.00054326,97.7041,346.1160,45.5364,314.6333,0,U,48907,999,27541,.4395682E-3,.28946E-3,0
MANDRAKE 2 BAKER,2021-059AF,2026-06-05T11:45:36.698976,15.58942492,.00039614,97.7012,348.1778,48.0884,312.0709,0,U,48908,999,27547,.36561246E-3,.28322E-3,0
PACE-1,2021-059AG,2026-06-05T11:49:11.428896,15.77832820,.00009943,97.6772,353.3326,9.7310,350.3975,0,U,48909,999,27595,.46410151E-3,.78298E-3,0
YAM-3,2021-059AN,2026-06-05T18:11:41.546400,15.48290517,.0006002,97.6993,342.9691,49.3483,310.8288,0,U,48915,999,27522,.24581407E-3,.12889E-3,0
FARADAY_PHOENIX,2021-059AX,2026-06-05T08:24:06.206976,15.75418861,.00027664,97.6832,353.0884,12.0834,348.0496,0,U,48924,999,27579,.7259706E-3,.110681E-2,0
DEMO8 (TENZING),2021-059CA,2026-06-05T11:07:19.734240,15.54530877,.00072865,97.7031,348.9941,38.6540,321.5234,0,U,48951,999,27548,.32427239E-3,.21313E-3,0
NAPA-2,2021-059CN,2026-06-06T07:03:43.553376,15.94146577,.00020873,97.6753,354.9506,260.7703,99.3335,0,U,48963,999,27607,.88711779E-3,.325839E-2,.43406974E-4
FENGYUN 3E,2021-062A,2026-06-06T06:42:13.070016,14.19903409,.00026775,98.7493,160.8093,103.2064,256.9411,0,U,49008,999,25503,.5712073E-4,.77E-6,0
ISS (NAUKA),2021-066A,2026-06-06T05:23:24.906048,15.49647679,.00070564,51.6331,354.3683,137.0383,223.1158,0,U,49044,999,56910,.97346264E-3,.5484E-3,0
STARLINK-3100,2021-082Q,2026-06-06T00:35:49.861824,14.98338431,.00028377,70.0036,71.7269,264.7447,95.3388,0,U,49144,999,25921,-.26272176E-3,-.3227E-4,0
CUTE,2021-088D,2026-06-04T17:40:26.833152,15.89140545,.0007156,97.4168,253.8627,259.5402,100.5064,0,U,49263,999,26057,.13201E-2,.375974E-2,.53981E-4
2021-091B,2021-091B,2026-06-06T07:39:29.780352,15.18497901,.00150481,97.4477,345.0598,79.6158,280.6772,0,U,49316,999,25733,.16607523E-3,.3366E-4,0
SDGSAT 1,2021-100A,2026-06-06T07:15:01.308672,15.19872198,.00074063,97.2637,204.6554,344.5637,15.5372,0,U,49387,999,25426,.1278818E-3,.2679E-4,0
TEIKYOSAT-4 (OORURI),2021-102B,2026-06-05T01:20:34.204416,15.09463286,.00113812,97.3670,186.0111,343.0074,17.0773,0,U,49396,999,25089,.10136179E-3,.1564E-4,0
Z-SAT,2021-102E,2026-06-06T06:10:19.565760,15.18179090,.00148778,97.3326,192.9128,287.7219,72.2391,0,U,49399,999,25178,.19959817E-3,.4023E-4,0
HIBARI,2021-102F,2026-06-04T15:47:28.991616,15.31468324,.00101125,97.3241,201.7061,239.9479,120.0760,0,U,49400,999,25227,.38976908E-3,.11791E-3,0
KOSEN-1,2021-102H,2026-06-05T01:58:16.296384,15.26660748,.0012175,97.3191,198.4757,246.8542,113.1415,0,U,49402,999,25217,.29954E-3,.7801E-4,0
GLOBAL-14,2021-106A,2026-06-05T07:07:16.271040,15.49987883,.00174719,42.0052,1.7149,299.1570,60.7525,0,U,49469,999,25628,.41992778E-3,.24045E-3,0
GAOFEN-3 02,2021-109A,2026-06-06T07:05:16.357344,14.42215535,.00036017,98.4088,165.5467,41.4265,318.7197,0,U,49495,999,23874,.10600515E-4,-.9E-7,0
GLOBAL-12,2021-115BA,2026-06-06T03:14:18.207744,15.52883839,.00033865,53.1948,97.6568,46.7882,313.3411,0,U,49772,999,25418,.64330992E-3,.40389E-3,0
GLOBAL-13,2021-115BB,2026-06-05T03:48:30.033216,15.45554912,.00042074,53.1968,111.7479,81.1558,278.9926,0,U,49773,999,25390,.51594554E-3,.24844E-3,0
GLOBAL-17,2021-120A,2026-06-05T04:23:50.226144,15.51596573,.00134358,41.9945,120.7885,176.8252,183.2680,0,U,49949,999,25303,.38490008E-3,.23266E-3,0
GLOBAL-16,2021-120B,2026-06-06T03:32:26.139264,15.49640827,.00114877,41.9946,118.5763,175.6225,184.4721,0,U,49950,999,25313,.56452091E-3,.31956E-3,0
XW-3 (CAS-9),2021-131B,2026-06-06T07:04:13.396800,14.41347469,.00051456,98.4976,249.7437,121.6083,238.5608,0,U,50466,999,23354,.18159667E-3,.544E-5,0
ION SCV-004,2022-002K,2026-06-05T09:36:03.768768,15.30330212,.00083835,97.2832,214.2807,46.6926,313.5012,0,U,50993,999,24349,.18428589E-3,.5336E-4,0
ETV-A1,2022-002CE,2026-06-06T05:33:19.361376,15.40451852,.00057181,97.2877,223.5700,41.1402,319.0274,0,U,51060,999,24415,.34201924E-3,.13782E-3,0
BRO-5,2022-002CF,2026-06-06T06:07:33.865248,15.46756888,.00046548,97.2994,230.8323,20.0862,340.0570,0,U,51061,999,24456,.78744756E-3,.39489E-3,0
