HAIYANG-2D              
1 48621U 21043A   26157.30368025 -.00000004  00000+0  70455-4 0  9998
2 48621  65.9996 331.7963 0011371 270.3671  89.6094 13.83375399255041
2021-050D               
1 48843U 21050D   26157.29970656  .00006435  00000+0  27474-3 0  9994
2 48843  97.3329 233.5842 0004287 315.5776  44.5116 15.23220235277309
TYVAK-0173              
1 48892U 21059P   26156.44835728  .00001986  00000+0  25510-3 0  9998
2 48892  96.0083 235.7231 0010936  73.9036 286.3385 14.81850973266509
MANDRAKE 2 ABLE         
1 48907U 21059AE  26157.16836994  .00028946  00000+0  43957-3 0  9991
2 48907  97.7041 346.1160 0005432  45.5364 314.6333 15.54534521275417
MANDRAKE 2 BAKER        
1 48908U 21059AF  26156.49000809  .00028322  00000+0  36561-3 0  9996
2 48908  97.7012 348.1778 0003961  48.0884 312.0709 15.58942492275472
PACE-1                  
1 48909U 21059AG  26156.49249339  .00078298  00000+0  46410-3 0  9991
2 48909  97.6772 353.3326 0000994   9.7310 350.3975 15.77832820275950
YAM-3                   
1 48915U 21059AN  26156.75811975  .00012889  00000+0  24581-3 0  9997
2 48915  97.6993 342.9691 0006002  49.3483 310.8288 15.48290517275225
FARADAY_PHOENIX         
1 48924U 21059AX  26156.35007184  .00110681  00000+0  72597-3 0  9991
2 48924  97.6832 353.0884 0002766  12.0834 348.0496 15.75418861275794
DEMO8 (TENZING)         
1 48951U 21059CA  26156.46342285  .00021313  00000+0  32427-3 0  9998
2 48951  97.7031 348.9941 0007286  38.6540 321.5234 15.54530877275484
NAPA-2                  
1 48963U 21059CN  26157.29425409  .00325839  43407-4  88712-3 0  9994
2 48963  97.6753 354.9506 0002087 260.7703  99.3335 15.94146577276076
FENGYUN 3E              
1 49008U 21062A   26157.27931794  .00000077  00000+0  57121-4 0  9998
2 49008  98.7493 160.8093 0002677 103.2064 256.9411 14.19903409255031
ISS (NAUKA)             
1 49044U 21066A   26157.22459382  .00054840  00000+0  97346-3 0  9994
2 49044  51.6331 354.3683 0007056 137.0383 223.1158 15.49647679569108
STARLINK-3100           
1 49144U 21082Q   26157.02488266 -.00003227  00000+0 -26272-3 0  9999
2 49144  70.0036  71.7269 0002837 264.7447  95.3388 14.98338431259215
CUTE                    
1 49263U 21088D   26155.73642168  .00375974  53981-4  13201-2 0  9993
2 49263  97.4168 253.8627 0007156 259.5402 100.5064 15.89140545260578
2021-091B               
1 49316U 21091B   26157.31909468  .00003366  00000+0  16608-3 0  9998
2 49316  97.4477 345.0598 0015048  79.6158 280.6772 15.18497901257338
SDGSAT 1                
1 49387U 21100A   26157.30209848  .00002679  00000+0  12788-3 0  9992
2 49387  97.2637 204.6554 0007406 344.5637  15.5372 15.19872198254265
TEIKYOSAT-4 (OORURI)    
1 49396U 21102B   26156.05595144  .00001564  00000+0  10136-3 0  9999
2 49396  97.3670 186.0111 0011381 343.0074  17.0773 15.09463286250891
Z-SAT                   
1 49399U 21102E   26157.25717090  .00004023  00000+0  19960-3 0  9998
2 49399  97.3326 192.9128 0014877 287.7219  72.2391 15.18179090251789
HIBARI                  
1 49400U 21102F   26155.65797444  .00011791  00000+0  38977-3 0  9993
2 49400  97.3241 201.7061 0010112 239.9479 120.0760 15.31468324252271
KOSEN-1                 
1 49402U 21102H   26156.08213306  .00007801  00000+0  29954-3 0  9995
2 49402  97.3191 198.4757 0012175 246.8542 113.1415 15.26660748252177
GLOBAL-14               
1 49469U 21106A   26156.29671610  .00024045  00000+0  41993-3 0  9997
2 49469  42.0052   1.7149 0017471 299.1570  60.7525 15.49987883256282
GAOFEN-3 02             
1 49495U 21109A   26157.29532821 -.00000009  00000+0  10601-4 0  9998
2 49495  98.4088 165.5467 0003601  41.4265 318.7197 14.42215535238748
GLOBAL-12               
1 49772U 21115BA  26157.13493296  .00040389  00000+0  64331-3 0  9990
2 49772  53.1948  97.6568 0003386  46.7882 313.3411 15.52883839254185
GLOBAL-13               
1 49773U 21115BB  26156.15868094  .00024844  00000+0  51595-3 0  9990
2 49773  53.1968 111.7479 0004207  81.1558 278.9926 15.45554912253908
GLOBAL-17               
1 49949U 21120A   26156.18322021  .00023266  00000+0  38490-3 0  9995
2 49949  41.9945 120.7885 0013435 176.8252 183.2680 15.51596573253035
GLOBAL-16               
1 49950U 21120B   26157.14752476  .00031956  00000+0  56452-3 0  9998
2 49950  41.9946 118.5763 0011487 175.6225 184.4721 15.49640827253139
XW-3 (CAS-9)            
1 50466U 21131B   26157.29459950  .00000544  00000+0  18160-3 0  9994
2 50466  98.4976 249.7437 0005145 121.6083 238.5608 14.41347469233540
ION SCV-004             
1 50993U 22002K   26156.40004362  .00005336  00000+0  18429-3 0  9994
2 50993  97.2832 214.2807 0008383  46.6926 313.5012 15.30330212243495
ETV-A1                  
1 51060U 22002CE  26157.23147409  .00013782  00000+0  34202-3 0  9993
2 51060  97.2877 223.5700 0005718  41.1402 319.0274 15.40451852244153
BRO-5                   
1 51061U 22002CF  26157.25525307  .00039489  00000+0  78745-3 0  9995
2 51061  97.2994 230.8323 0004654  20.0862 340.0570 15.46756888244561
